X,Y,OBJECTID,ACCPRKID,STREET_NAME,FROM_STR,TO_STR,NUMSPOTS,DURATION,QUALIFIER,STATUS,COMMENTS,DIRECTION,ADJSURFMAT,OBSTRUCT,LOC_HILL,ADDDATE,MODDATE,SDATE,SOURCE,SACC,WINT_PLOW,WINT_MAINT,WINT_ROUTE,WINT_LOS,WINT_MAT,WINT_COMM,WINT_ADDBY,WINT_ADDDATE,WINT_MODBY,WINT_MODDATE
-63.58615283,44.67238863,74657,AP52,HESTER ST,JAMIESON ST,HENRY ST,1,NTR,,INS,,SE,CONCRETE,N,Y,2019/10/16 17:59:49+00,2020/11/26 02:17:56+00,2019/09/30 03:00:00+00,Traffic Services,IN,Y,HRM2,R2,PRI2,,ACCESSIBLE PARKING - NTR - SPOT(S) = 1,,,,
-63.57498079,44.64758319,74658,AP74,ARGYLE ST,CARMICHAEL ST,PRINCE ST,1,HR3,,INS,,S,CONCRETE,Y,N,2019/10/16 20:44:53+00,2020/11/26 02:17:56+00,2019/09/30 03:00:00+00,Traffic Services,IN,Y,HRM1,R1,PRI2,,ACCESSIBLE PARKING - HR3 - SPOT(S) = 2,,,,
-63.58429251,44.64996016,74659,AP81,BAUER ST,COGSWELL ST,FALKLAND ST,1,NTR,,INS,,NE,CONGRAS,N,N,2019/10/16 21:15:12+00,2020/11/26 02:17:56+00,2019/09/30 03:00:00+00,Traffic Services,IN,Y,HRM1,R6,PRI2,,ACCESSIBLE PARKING - NTR - SPOT(S) = 1,,,,
-63.57221883,44.64373027,74660,AP79,BARRINGTON ST,BISHOP ST,SPRING GARDEN RD,3,,1,INS,,N,CONCRETE,Y,N,2019/10/16 21:04:30+00,2020/11/26 02:17:56+00,2019/09/30 03:00:00+00,Traffic Services,IN,Y,HRM1,R2,PRI2,,ACCESSIBLE PARKING - SPOT(S) = 5,,,,
-63.56735017,44.66801135,74661,AP50,DUNDAS ST,OCHTERLONEY ST,NORTH ST,2,NTR,1,INS,,W,CONCRETE,N,Y,2019/10/16 17:30:31+00,2020/11/26 02:17:56+00,2019/09/30 03:00:00+00,Traffic Services,IN,Y,HRM2,R1,PRI2,,ACCESSIBLE PARKING - SPOT(S) = 2,,,,
-63.55894015,44.66933968,74662,AP48,HAWTHORNE ST,PORTLAND ST,ERSKINE ST,2,NTR,,INS,,N,CONCRETE,N,N,2019/10/16 17:08:12+00,2020/11/26 02:17:53+00,2019/09/30 03:00:00+00,Traffic Services,IN,Y,SWZ8,,PRI2,,ACCESSIBLE PARKING - NTR - SPOT(S) = 2,,,,
-63.57453589,44.64650918,74663,AP76,ARGYLE ST,PRINCE ST,SACKVILLE ST,1,HR3,,INS,,S,CONCRETE,N,N,2019/10/16 20:44:53+00,2020/11/26 02:17:56+00,2019/09/30 03:00:00+00,Traffic Services,IN,Y,HRM1,R5,PRI2,,ACCESSIBLE PARKING - HR3 - SPOT(S) = 1,,,,
-63.54255517,44.6662893,74664,AP69,REGENCY DR,GASTON RD,END,2,NTR,,INS,,SE,GRASS,Y,N,2019/10/16 19:32:01+00,2020/11/26 02:17:53+00,2019/09/30 03:00:00+00,Traffic Services,IN,Y,SWZ8,,PRI2,,ACCESSIBLE PARKING - NTR - SPOT(S) = 2,,,,
-63.5685892,44.66514284,74665,AP56,QUEEN ST,ALDERNEY DR,EDWARD ST,1,HR2,,INS,,NE,CONCRETE,N,Y,2019/10/16 19:20:23+00,2020/11/26 02:17:56+00,2019/09/30 03:00:00+00,Traffic Services,IN,Y,HRM2,R1,PRI2,,ACCESSIBLE PARKING - HR2 - SPOT(S) = 1,,,,
-63.57564309,44.66906758,74666,AP51,WYSE RD,THISTLE ST,NANTUCKET AVE,1,NTR,,INS,,NW,CONCRETE,N,N,2019/10/16 17:36:25+00,2020/11/26 02:17:56+00,2019/09/30 03:00:00+00,Traffic Services,IN,Y,HRM2,R2,PRI2,,ACCESSIBLE PARKING - NTR - SPOT(S) = 1,,,,
-63.56620715,44.66605376,74667,AP60,PORTLAND ST,KING ST,WENTWORTH ST,2,HR3,,INS,,SW,CONCRETE,N,N,2019/10/16 19:20:23+00,2020/11/26 02:17:56+00,2019/09/30 03:00:00+00,Traffic Services,IN,Y,HRM2,R1,PRI2,,ACCESSIBLE PARKING - HR3 - SPOT(S) = 2,,,,
-63.58835366,44.67299076,74668,AP70,ELMWOOD AVE,WINDMILL RD,HESTER ST,1,NTR,,INS,,NE,CONCRETE,Y,N,2019/10/16 19:57:40+00,2020/11/26 02:17:56+00,2019/09/30 03:00:00+00,Traffic Services,IN,Y,HRM2,R2,PRI2,,ACCESSIBLE PARKING - NTR - SPOT(S) = 1,,,,
-63.56696554,44.66666006,74669,AP58,QUEEN ST,KING ST,WENTWORTH ST,1,NTR,,INS,,SW,CONCRETE,N,Y,2019/10/16 19:20:23+00,2020/11/26 02:17:56+00,2019/09/30 03:00:00+00,Traffic Services,IN,Y,HRM2,R1,PRI2,,ACCESSIBLE PARKING - NTR - SPOT(S) = 1,,,,
-63.57442462,44.64805734,74670,AP77,BARRINGTON ST,PRINCE ST,GEORGE ST,2,HR3,,INS,,N,CONCRETE,N,N,2019/10/16 20:57:46+00,2020/11/26 02:17:56+00,2019/09/30 03:00:00+00,Traffic Services,IN,Y,HRM1,R1,PRI2,,ACCESSIBLE PARKING - HR3 - SPOT(S) = 2,,,,
-63.56487778,44.66654749,74671,AP53,DUNDAS ST,GREEN ST,PORTLAND ST,1,NTR,,INS,,SE,CONCRETE,N,Y,2019/10/16 19:07:55+00,2020/11/26 02:17:56+00,2019/09/30 03:00:00+00,Traffic Services,IN,Y,HRM2,R1,PRI2,,ACCESSIBLE PARKING - NTR - SPOT(S) = 1,,,,
-63.57279058,44.644871,74672,AP80,BARRINGTON ST,SALTER ST,BLOWERS ST,1,HR2,,INS,,N,CONCRETE,N,N,2019/10/16 21:04:30+00,2020/11/26 02:17:56+00,2019/09/30 03:00:00+00,Traffic Services,IN,Y,HRM1,R2,PRI2,,ACCESSIBLE PARKING - HR2 - SPOT(S) = 1,,,,
-63.54327057,44.6666796,74673,AP68,GASTON RD,PORTLAND ST,REGENCY DR,2,,6,INS,,E,CONCRETE,Y,N,2019/10/16 19:32:01+00,2020/11/26 02:17:53+00,2019/09/30 03:00:00+00,Traffic Services,IN,Y,SWZ8,,PRI2,,,,,,
-63.60909062,44.64864092,74674,AP17,BERLIN ST,CONNAUGHT AVE,SWAINE ST,1,NTR,,INS,,NE,CONCRETE,N,Y,2019/10/08 19:29:39+00,2020/11/26 02:17:53+00,2019/09/30 03:00:00+00,Traffic Services,IN,Y,SWZ6,RA,PRI2,,ACCESSIBLE PARKING - NTR - SPOT(S) = 1,,,,
-63.59647666,44.65146952,74675,AP15,CHARLES ST,WINDSOR ST,GLADSTONE ST,2,NTR,,INS,,SW,GRASS,Y,N,2019/10/08 19:07:34+00,2020/11/26 02:17:53+00,2019/09/30 03:00:00+00,Traffic Services,IN,Y,SWZ6,RB,PRI2,,ACCESSIBLE PARKING - NTR - SPOT(S) = 2,,,,
-63.60590012,44.65141507,74676,AP18,OXFORD ST,ALMON ST,BERLIN ST,2,,3,INS,,SE,GRASS,Y,N,2019/10/08 19:33:19+00,2020/11/26 02:17:53+00,2019/09/30 03:00:00+00,Traffic Services,IN,Y,SWZ6,RA,PRI2,,ACCESSIBLE PARKING - SPOT(S) = 2,,,,
-63.60059651,44.65286391,74677,AP16,SUMMIT ST,WINDSOR ST,DUBLIN ST,2,NTR,,INS,,SW,GRASS,N,N,2019/10/08 19:24:37+00,2020/11/26 02:17:53+00,2019/09/30 03:00:00+00,Traffic Services,IN,Y,SWZ6,RA,PRI2,,ACCESSIBLE PARKING - NTR - SPOT(S) = 2,,,,
-63.57497094,44.63628849,74678,AP127,VICTORIA RD,LUCKNOW ST,QUEEN ST,1,NTR,,INS,,E,GRASS,N,N,2019/10/18 16:58:20+00,2020/11/26 02:17:55+00,2019/09/30 03:00:00+00,Traffic Services,IN,Y,SWZ5,,PRI2,,ACCESSIBLE PARKING - NTR - SPOT(S) = 1,,,,
-63.57427814,44.64452177,74679,AP110,GRAFTON ST,BLOWERS ST,SPRING GARDEN RD,1,HR3,,INS,,S,CONCRETE,Y,N,2019/10/18 16:17:24+00,2020/11/26 02:17:58+00,2019/09/30 03:00:00+00,Traffic Services,IN,Y,HRM1,R2,PRI2,,ACCESSIBLE PARKING - HR3 - SPOT(S) = 1,,,,
-63.57188921,44.64164256,74680,AP138,MORRIS ST,BARRINGTON ST,CHURCH ST,1,HR3,,INS,,W,CONCRETE,N,Y,2019/10/18 16:58:20+00,2020/11/26 02:17:58+00,2019/09/30 03:00:00+00,Traffic Services,IN,Y,HRM1,R2,PRI2,,ACCESSIBLE PARKING - HR3 - SPOT(S) = 1,,,,
-63.58034992,44.6419417,74681,AP90,CATHEDRAL LANE,SPRING GARDEN RD,COLLEGE ST,1,HR1,,INS,,S,GRAVEL,Y,N,2019/10/17 18:50:56+00,2020/11/26 02:17:56+00,2019/09/30 03:00:00+00,Traffic Services,IN,Y,HRM1,R4,PRI2,,ACCESSIBLE PARKING - HR1 - SPOT(S) = 1,,,,
-63.58698008,44.64920672,74682,AP95,COGSWELL ST,NORTH PARK ST,ROBIE ST,4,HR2,,INS,,W,GRASS,Y,N,2019/10/17 20:17:50+00,2020/11/26 02:17:56+00,2019/09/30 03:00:00+00,Traffic Services,IN,Y,HRM1,R3,PRI2,,ACCESSIBLE PARKING - HR2 - SPOT(S) = 4,,,,
-63.58595704,44.6406954,74683,AP204,SPRING GARDEN RD,CARLTON ST,ROBIE ST,1,HR2,,INS,,W,GRASS,Y,N,2019/10/18 16:58:20+00,2020/11/26 02:17:58+00,2019/09/30 03:00:00+00,Traffic Services,IN,Y,HRM1,R4,PRI2,,ACCESSIBLE PARKING - HR2 - SPOT(S) = 1,,,,
-63.5859804,44.63792492,74685,AP206,UNIVERSITY AVE,ROBIE ST,EDWARD ST,3,HR3,,INS,,E,GRASS,Y,N,2019/10/18 16:58:20+00,2020/11/26 02:17:55+00,2019/09/30 03:00:00+00,Traffic Services,IN,Y,SWZ5,,PRI2,,ACCESSIBLE PARKING - HR3 - SPOT(S) = 3,,,,
-63.57542067,44.6423756,74686,AP132,QUEEN ST,SPRING GARDEN RD,CLYDE ST,3,HR3,,INS,,N,CONCRETE,N,Y,2019/10/18 16:58:20+00,2021/03/26 15:59:21+00,2019/09/30 03:00:00+00,Traffic Services,IN,Y,HRM1,R2,PRI2,,ACCESSIBLE PARKING - HR1 - SPOT(S) = 1,,,,
-63.58708941,44.65673828,74687,AP87,BRUNSWICK ST,UNIACKE ST,ARTZ ST,1,NTR,,INS,,N,CONCRETE,N,N,2019/10/17 16:37:05+00,2020/11/26 02:17:53+00,2019/09/30 03:00:00+00,Traffic Services,IN,Y,SWZ6,RB,PRI2,,ACCESSIBLE PARKING - NTR - SPOT(S) = 1,,,,
-63.58761891,44.6373426,74688,AP200,HENRY ST,SOUTH ST,UNIVERSITY AVE,3,HR3,,INS,,N,GRASS,Y,N,2019/10/18 16:58:20+00,2020/11/26 02:17:55+00,2019/09/30 03:00:00+00,Traffic Services,IN,Y,SWZ5,,PRI2,,ACCESSIBLE PARKING - HR3 - SPOT(S) = 3,,,,
-63.57393594,44.63795429,74689,AP104,FENWICK ST,QUEEN ST,LUCKNOW ST,2,HR3,,INS,,W,GRASS,N,Y,2019/10/18 15:56:48+00,2020/11/26 02:17:55+00,2019/09/30 03:00:00+00,Traffic Services,IN,Y,SWZ5,,PRI2,,ACCESSIBLE PARKING - HR3 - SPOT(S) = 2,,,,
-63.6008686,44.6552238,74690,AP14,GLADSTONE ST,ALMON ST,NORTH ST,2,HR3,,INS,,SE,GRASS,N,Y,2019/10/05 18:15:46+00,2020/11/26 02:17:53+00,2019/09/30 03:00:00+00,Traffic Services,IN,Y,SWZ6,RB,PRI2,,ACCESSIBLE PARKING - HR3 - SPOT(S) = 2,,,,
-63.59753216,44.65311243,74691,AP13,GLADSTONE ST,ALMON ST,NORTH ST,2,HR3,,INS,,SE,CONCRETE,N,N,2019/10/05 18:10:56+00,2020/11/26 02:17:53+00,2019/09/30 03:00:00+00,Traffic Services,IN,Y,SWZ6,RB,PRI2,,ACCESSIBLE PARKING - HR3 - SPOT(S) = 2,,,,
-63.60057369,44.65595046,74692,AP12,ALMON ST,ROBIE ST,GLADSTONE ST,1,HR3,,INS,,W,GRASS,Y,N,2019/10/05 18:01:23+00,2020/11/26 02:17:53+00,2019/09/30 03:00:00+00,Traffic Services,IN,Y,SWZ6,RB,PRI2,,ACCESSIBLE PARKING - HR3 - SPOT(S) = 1,,,,
-63.60065523,44.65574751,74693,AP11,ALMON ST,GLADSTONE ST,ROBIE ST,2,HR3,,INS,,E,CONCRETE,N,N,2019/10/05 18:00:49+00,2020/11/26 02:17:53+00,2019/09/30 03:00:00+00,Traffic Services,IN,Y,SWZ6,RB,PRI2,,ACCESSIBLE PARKING - HR3 - SPOT(S) = 2,,,,
-63.58670143,44.63760801,74694,AP103,EDWARD ST,SOUTH ST,UNIVERSITY AVE,1,HR3,,INS,,N,GRASS,Y,Y,2019/10/18 15:53:36+00,2020/11/26 02:17:55+00,2019/09/30 03:00:00+00,Traffic Services,IN,Y,SWZ5,,PRI2,,ACCESSIBLE PARKING - HR3 - SPOT(S) = 1,,,,
-63.57153916,44.64672918,74695,AP156,SACKVILLE ST,HOLLIS ST,BEDFORD ROW,1,NTR,,INS,,E,CONCRETE,N,Y,2019/10/18 16:58:20+00,2020/11/26 02:17:58+00,2019/09/30 03:00:00+00,Traffic Services,IN,Y,HRM1,R2,PRI2,,ACCESSIBLE PARKING - NTR - SPOT(S) = 1,,,,
-63.58785216,44.6396864,74696,AP102,EDWARD ST,COBURG RD,UNIVERSITY AVE,1,HR1,,INS,,N,GRASS,Y,N,2019/10/18 15:33:34+00,2020/11/26 02:17:55+00,2019/09/30 03:00:00+00,Traffic Services,IN,Y,SWZ5,,PRI2,,ACCESSIBLE PARKING - HR1 - SPOT(S) = 1,,,,
-63.59050801,44.65485373,74697,AP159,MAYNARD ST ,ROBERTS ST,CHARLES ST,2,NTR,,INS,,N,CONCRETE,N,N,2019/10/18 16:58:20+00,2020/11/26 02:17:53+00,2019/09/30 03:00:00+00,Traffic Services,IN,Y,SWZ6,RB,PRI2,,ACCESSIBLE PARKING - NTR - SPOT(S) = 2,,,,
-63.58536129,44.64128365,74698,AP88,CARLTON ST,SPRING GARDEN RD,,1,HR3,,INS,,N,CONCRETE,N,N,2019/10/17 16:43:49+00,2020/11/26 02:17:56+00,2019/09/30 03:00:00+00,Traffic Services,IN,Y,HRM1,R4,PRI2,,ACCESSIBLE PARKING - HR3 - SPOT(S) = 1,,,,
-63.56893589,44.64022056,74700,AP141,HOLLIS ST,BARRINGTON ST,TERMINAL RD,2,HR3,,INS,,N,CONGRAS,N,N,2019/10/18 16:58:20+00,2020/11/26 02:17:58+00,2019/09/30 03:00:00+00,Traffic Services,IN,Y,HRM1,R2,PRI2,,ACCESSIBLE PARKING - HR3 - SPOT(S) = 2,,,,
-63.59088859,44.63855025,74703,AP119,LEMARCHANT ST,COBURG RD,UNIVERSITY AVE,2,HR3,,INS,,S,GRASS,N,Y,2019/10/18 16:58:20+00,2020/11/26 02:17:55+00,2019/09/30 03:00:00+00,Traffic Services,IN,Y,SWZ5,,PRI2,,ACCESSIBLE PARKING - HR3 - SPOT(S) = 2,,,,
-63.58068699,44.64209658,74704,AP134,SPRING GARDEN RD,SOUTH PARK ST,SUMMER ST,1,HR3,,INS,,SW,CONCRETE,Y,N,2019/10/18 16:58:20+00,2020/11/26 02:17:58+00,2019/09/30 03:00:00+00,Traffic Services,IN,Y,HRM1,R4,PRI2,,ACCESSIBLE PARKING - HR3 - SPOT(S) = 1,,,,
-63.57474661,44.64574638,74705,AP111,GRAFTON ST,SACKVILLE ST,BLOWERS ST,1,MIN30,,INS,,N,CONCRETE,N,N,2019/10/18 16:18:54+00,2020/11/26 02:17:58+00,2019/09/30 03:00:00+00,Traffic Services,IN,Y,HRM1,R2,PRI2,,ACCESSIBLE PARKING - MIN30 - SPOT(S) = 1,,,,
-63.59525401,44.64978401,74706,AP36,DUNCAN ST,CHEBUCTO LANE,WINDSOR ST,2,HR3,,INS,,E,GRASS,Y,N,2019/10/09 20:30:06+00,2020/11/26 02:17:53+00,2019/09/30 03:00:00+00,Traffic Services,IN,Y,SWZ6,RA,PRI2,,ACCESSIBLE PARKING - HR3 - SPOT(S) = 2,,,,
-63.59585555,44.65945576,74707,AP25,ALMON ST,ISLEVILLE ST,GOTTINGEN ST,2,NTR,,INS,,NE,GRASS,Y,N,2019/10/09 17:47:00+00,2020/11/26 02:17:53+00,2019/09/30 03:00:00+00,Traffic Services,IN,Y,SWZ6,RB,PRI2,,ACCESSIBLE PARKING - NTR - SPOT(S) = 2,,,,
-63.59212252,44.64830701,74708,AP44,PARKER ST,WINDSOR ST,WELSFORD ST,4,,,INS,,N,GRASS,Y,N,2019/10/10 21:04:14+00,2020/11/26 02:17:53+00,2019/09/30 03:00:00+00,Traffic Services,IN,Y,SWZ6,RB,PRI2,,ACCESSIBLE PARKING - SPOT(S) = 4,,,,
-63.60687055,44.66540883,74709,AP32,SEBASTIAN ST,AGRICOLA ST,ISLEVILLE ST,5,,1,INS,,NE,GRASS,Y,N,2019/10/09 19:22:58+00,2020/11/26 02:17:53+00,2019/09/30 03:00:00+00,Traffic Services,IN,Y,SWZ6,RB,PRI2,,ACCESSIBLE PARKING - SPOT(S) = 5,,,,
-63.60083524,44.64700792,74710,AP37,ALLAN ST,HARVARD ST,OXFORD ST,1,NTR,,INS,,SW,GRASS,Y,N,2019/10/10 17:24:35+00,2020/11/26 02:17:53+00,2019/09/30 03:00:00+00,Traffic Services,IN,Y,SWZ6,RA,PRI2,,ACCESSIBLE PARKING - NTR - SPOT(S) = 1,,,,
-63.59268062,44.65729288,74711,AP20,NORTHWOOD TERR,BLACK ST,NORTH ST,5,HR3,,INS,,SE,CONCRETE,N,N,2019/10/09 17:19:27+00,2021/04/01 20:12:49+00,2019/09/30 03:00:00+00,Traffic Services,IN,Y,SWZ6,RB,PRI2,,ACCESSIBLE PARKING - HR3 - SPOT(S) = 3,,,,
-63.60309387,44.65405627,74712,AP35,ALMON ST,WINDSOR ST,DUBLIN ST,3,HR3,,INS,,SW,CONCRETE,Y,N,2019/10/09 20:25:37+00,2021/05/28 20:52:14+00,2019/09/30 03:00:00+00,Traffic Services,IN,Y,SWZ6,RA,PRI2,,ACCESSIBLE PARKING - HR3 - SPOT(S) = 4,,,,
-63.59577656,44.66476175,74713,AP29,VEITH ST,YOUNG ST,HANOVER ST,1,NTR,,INS,,NW,CONCRETE,N,N,2019/10/09 19:01:05+00,2020/11/26 02:17:53+00,2019/09/30 03:00:00+00,Traffic Services,IN,Y,SWZ6,RB,PRI2,,ACCESSIBLE PARKING - NTR - SPOT(S) = 1,,,,
-63.60065225,44.64286454,74714,AP40,CAMBRIDGE ST,PEPPERELL ST,NORWOOD ST,1,NTR,,INS,,S,GRASS,Y,N,2019/10/10 17:46:26+00,2020/11/26 02:17:55+00,2019/09/30 03:00:00+00,Traffic Services,IN,Y,SWZ5,,PRI2,,ACCESSIBLE PARKING - NTR - SPOT(S) = 1,,,,
-63.59579433,44.63542903,74715,AP46,OXFORD ST,COBURG RD,SOUTH ST,1,NTR,,INS,,S,GRASS,Y,Y,2019/10/10 21:14:56+00,2020/11/26 02:17:55+00,2019/09/30 03:00:00+00,Traffic Services,IN,Y,SWZ5,,PRI2,,ACCESSIBLE PARKING - NTR - SPOT(S) = 1,,,,
-63.59946696,44.66165165,74716,AP27,KAYE ST,ISLEVILLE ST,GOTTINGEN ST,1,HR3,,INS,,NE,CONCRETE,Y,N,2019/10/09 17:58:37+00,2020/11/26 02:17:53+00,2019/09/30 03:00:00+00,Traffic Services,IN,Y,SWZ6,RB,PRI2,,ACCESSIBLE PARKING - HR3 - SPOT(S) = 1,,,,
-63.59135622,44.6563921,74717,AP21,CREIGHTON ST,NORTH ST,CHARLES ST,1,NTR,,INS,,SE,GRASS,Y,N,2019/10/09 17:23:40+00,2020/11/26 02:17:53+00,2019/09/30 03:00:00+00,Traffic Services,IN,Y,SWZ6,RB,PRI2,,ACCESSIBLE PARKING - NTR - SPOT(S) = 1,,,,
-63.5980491,44.66175119,74718,AP26,SULLIVAN ST,ISLEVILLE ST,GOTTINGEN ST,1,NTR,,INS,,NE,GRASS,Y,N,2019/10/09 17:55:24+00,2020/11/26 02:17:53+00,2019/09/30 03:00:00+00,Traffic Services,IN,Y,SWZ6,RB,PRI2,,ACCESSIBLE PARKING - NTR - SPOT(S) = 1,,,,
-63.60174871,44.64517527,74719,AP38,KLINE ST,OAK ST,QUINPOOL RD,1,NTR,,INS,,S,GRASS,Y,N,2019/10/10 17:34:15+00,2020/11/26 02:17:53+00,2019/09/30 03:00:00+00,Traffic Services,IN,Y,SWZ6,RA,PRI2,,ACCESSIBLE PARKING - NTR - SPOT(S) = 1,,,,
-63.58750346,44.65431656,74720,AP22,BUDDY DAYE ST,CREIGHTON ST,GOTTINGEN ST,2,HR3,,INS,,NE,CONCRETE,N,Y,2019/10/09 17:30:01+00,2020/11/26 02:17:56+00,2019/09/30 03:00:00+00,Traffic Services,IN,Y,HRM1,R6,PRI2,,ACCESSIBLE PARKING - HR3 - SPOT(S) = 2,,,,
-63.58422673,44.6514198,74721,AP23,CREIGHTON ST,CORNWALLIS ST,FALKLAND ST,1,NTR,,INS,,SE,CONGRAS,N,Y,2019/10/09 17:32:59+00,2020/11/26 02:17:56+00,2019/09/30 03:00:00+00,Traffic Services,IN,Y,HRM1,R6,PRI2,,ACCESSIBLE PARKING - NTR - SPOT(S) = 1,,,,
-63.61177192,44.66812087,74722,AP30,HIGHLAND AVE,NORMANDY DR,LEEDS ST,2,NTR,,INS,,NW,CONCRETE,Y,N,2019/10/09 19:06:02+00,2020/11/26 02:17:53+00,2019/09/30 03:00:00+00,Traffic Services,IN,Y,SWZ6,RB,PRI2,,ACCESSIBLE PARKING - NTR - SPOT(S) = 2,,,,
-63.60176744,44.66197319,74723,AP33,KANE ST,AGRICOLA ST,ISLEVILLE ST,1,NTR,,INS,,NE,GRASS,Y,N,2019/10/09 19:32:31+00,2020/11/26 02:17:53+00,2019/09/30 03:00:00+00,Traffic Services,IN,Y,SWZ6,RB,PRI2,,ACCESSIBLE PARKING - NTR - SPOT(S) = 1,,,,
-63.61321476,44.66663194,74724,AP31,NORMANDY DR,HIGH ST,ROBIE ST,2,NTR,,INS,,NE,CONCRETE,N,N,2019/10/09 19:11:06+00,2020/11/26 02:17:53+00,2019/09/30 03:00:00+00,Traffic Services,IN,Y,SWZ6,RB,PRI2,,ACCESSIBLE PARKING - NTR - SPOT(S) = 2,,,,
-63.59656179,44.63720671,74725,AP47,OXFORD ST,COBURG RD,SOUTH ST,3,NTR,,INS,,S,GRASS,N,N,2019/10/10 21:23:17+00,2020/11/26 02:17:55+00,2019/09/30 03:00:00+00,Traffic Services,IN,Y,SWZ5,,PRI2,,ACCESSIBLE PARKING - NTR - SPOT(S) = 3,,,,
-63.59363936,44.6473517,74726,AP43,QUINGATE PL,QUINPOOL RD,,1,NTR,,INS,,N,CONCRETE,N,N,2019/10/10 18:21:53+00,2020/11/26 02:17:53+00,2019/09/30 03:00:00+00,Traffic Services,IN,Y,SWZ6,RA,PRI2,,ACCESSIBLE PARKING - NTR - SPOT(S) = 1,,,,
-63.59862491,44.66194861,74727,AP28,KAYE ST,ISLEVILLE ST,GOTTINGEN ST,1,HR1,,INS,,NE,CONCRETE,N,N,2019/10/09 17:59:07+00,2020/11/26 02:17:53+00,2019/09/30 03:00:00+00,Traffic Services,IN,Y,SWZ6,RB,PRI2,,ACCESSIBLE PARKING - HR1 - SPOT(S) = 1,,,,
-63.56621447,44.66745548,74728,AP54,DUNDAS ST,OCHTERLONEY ST,QUEEN ST,1,HR2,,INS,,E,CONCRETE,N,Y,2019/10/16 19:07:55+00,2020/11/26 02:17:56+00,2019/09/30 03:00:00+00,Traffic Services,IN,Y,HRM2,R1,PRI2,,ACCESSIBLE PARKING - HR2 - SPOT(S) = 1,,,,
-63.57092748,44.64091225,74729,AP78,BARRINGTON ST,MORRIS ST,HARVEY ST,1,HR2,,INS,,S,CONCRETE,N,N,2019/10/16 21:04:30+00,2020/11/26 02:17:55+00,2019/09/30 03:00:00+00,Traffic Services,IN,Y,SWZ5,,PRI2,,ACCESSIBLE PARKING - HR2 - SPOT(S) = 1,,,,
-63.57690951,44.64292433,74730,AP83,BIRMINGHAM ST,SPRING GARDEN RD,CLYDE ST,1,HR2,,INS,,S,CONCRETE,Y,N,2019/10/16 21:33:54+00,2020/11/26 02:17:56+00,2019/09/30 03:00:00+00,Traffic Services,IN,Y,HRM1,R4,PRI2,,ACCESSIBLE PARKING - HR2 - SPOT(S) = 1,,,,
-63.56937322,44.66617161,74731,AP66,EDWARD ST,OCHTERLONEY ST,NORTH ST,1,HR2,,INS,,NW,GRASS,N,Y,2019/10/16 19:20:23+00,2020/11/26 02:17:56+00,2019/09/30 03:00:00+00,Traffic Services,IN,Y,HRM2,R1,PRI2,,ACCESSIBLE PARKING - HR2 - SPOT(S) = 1,,,,
-63.5697191,44.66677849,74732,AP62,NORTH ST,KING ST,EDWARD ST,1,NTR,,INS,,NE,GRASS,N,N,2019/10/16 19:20:23+00,2020/11/26 02:17:56+00,2019/09/30 03:00:00+00,Traffic Services,IN,Y,HRM2,R1,PRI2,,ACCESSIBLE PARKING - NTR - SPOT(S) = 1,,,,
-63.56536728,44.66666207,74733,AP59,PORTLAND ST,WENTWORTH ST,DUNDAS ST,1,HR2,,INS,,NE,CONCRETE,N,Y,2019/10/16 19:20:23+00,2020/11/26 02:17:56+00,2019/09/30 03:00:00+00,Traffic Services,IN,Y,HRM2,R1,PRI2,,ACCESSIBLE PARKING - HR2 - SPOT(S) = 1,,,,
-63.57402794,44.64572322,74734,AP75,ARGYLE ST,SACKVILLE ST,BLOWERS ST,1,HR3,,INS,,S,CONCRETE,N,N,2019/10/16 20:44:53+00,2020/11/26 02:17:56+00,2019/09/30 03:00:00+00,Traffic Services,IN,Y,HRM1,R5,PRI2,,ACCESSIBLE PARKING - HR3 - SPOT(S) = 1,,,,
-63.57560195,44.64881686,74735,AP72,ARGYLE ST,DUKE ST,CARMICHAEL ST,1,HR2,,INS,,S,CONCRETE,N,N,2019/10/16 20:44:53+00,2020/11/26 02:17:56+00,2019/09/30 03:00:00+00,Traffic Services,IN,Y,HRM1,R1,PRI2,,ACCESSIBLE PARKING - HR2 - SPOT(S) = 1,,,,
-63.56720973,44.66481989,74736,AP65,PRINCE ST,PORTLAND ST,ALDERNEY DR,1,HR2,,INS,,NW,CONCRETE,N,N,2019/10/16 19:20:23+00,2020/11/26 02:17:56+00,2019/09/30 03:00:00+00,Traffic Services,IN,Y,HRM2,R1,PRI2,,ACCESSIBLE PARKING - HR2 - SPOT(S) = 1,,,,
-63.56650046,44.66859775,74737,AP64,VICTORIA RD,OCHTERLONEY ST,PARK AVE,1,HR2,,INS,,NW,CONCRETE,N,Y,2019/10/16 19:20:23+00,2020/11/26 02:17:56+00,2019/09/30 03:00:00+00,Traffic Services,IN,Y,HRM2,R1,PRI2,,ACCESSIBLE PARKING - HR2 - SPOT(S) = 1,,,,
-63.58427007,44.64327954,74739,AP205,SUMMER ST,SPRING GARDEN RD,SACKVILLE ST,2,HR3,,INS,,N,GRASS,N,N,2019/10/18 16:58:20+00,2020/11/26 02:17:58+00,2019/09/30 03:00:00+00,Traffic Services,IN,Y,HRM1,R4,PRI2,,ACCESSIBLE PARKING - HR3 - SPOT(S) = 2,,,,
-63.58959804,44.63613749,74741,AP120,LEMARCHANT ST,SOUTH ST,UNIVERSITY AVE,2,HR3,,INS,,NW,GRASS,N,N,2019/10/18 16:58:20+00,2020/11/26 02:17:55+00,2019/09/30 03:00:00+00,Traffic Services,IN,Y,SWZ5,,PRI2,,ACCESSIBLE PARKING - HR3 - SPOT(S) = 2,,,,
-63.58011072,44.62713314,74742,AP106,FRANCKLYN ST,PINE HILL DR,MCCULLOCH CRT,2,NTR,,INS,,E,GRASS,N,N,2019/10/18 15:59:46+00,2020/11/26 02:17:55+00,2019/09/30 03:00:00+00,Traffic Services,IN,Y,SWZ5,,PRI2,,ACCESSIBLE PARKING - NTR - SPOT(S) = 2,,,,
-63.58593746,44.65384169,74743,AP107,GOTTINGEN ST,PRINCE WILLIAM ST,UNIACKE ST,2,HR3,,INS,,NE,CONCRETE,N,N,2019/10/18 16:11:33+00,2021/03/12 17:32:00+00,2019/09/30 03:00:00+00,Traffic Services,IN,Y,HRM1,R6,PRI2,,ACCESSIBLE PARKING - HR3 - SPOT(S) = 2,,,,
-63.61066554,44.66433052,74744,AP113,WELLS ST,ROBIE ST,PRESCOTT ST,1,NTR,,INS,,SW,CONCRETE,N,Y,2019/10/18 20:08:07+00,2020/11/26 02:17:53+00,2019/09/30 03:00:00+00,Traffic Services,IN,Y,SWZ6,RB,PRI2,,ACCESSIBLE PARKING - NTR - SPOT(S) = 1,,,,
-63.57691183,44.64756825,74746,AP89,CARMICHAEL ST,BRUNSWICK ST,MARKET ST,4,,5,INS,,E,CONCRETE,N,Y,2019/10/17 18:48:06+00,2020/11/26 02:17:56+00,2019/09/30 03:00:00+00,Traffic Services,IN,Y,HRM1,R1,PRI2,,ACCESSIBLE PARKING - SPOT(S) = 4,,,,
-63.58422344,44.65224171,74747,AP98,CORNWALLIS ST,CREIGHTON ST,MAITLAND ST,1,HR3,,INS,,SW,CONCRETE,N,Y,2019/10/17 21:12:53+00,2021/02/25 23:13:03+00,2019/09/30 03:00:00+00,Traffic Services,IN,Y,HRM1,R6,PRI2,,ACCESSIBLE PARKING - HR3 - SPOT(S) = 3,,,,
-63.58143504,44.64423239,74748,AP149,SACKVILLE ST,SOUTH PARK ST,SUMMER ST,2,HR3,,INS,,E,GRASS,N,N,2019/10/18 16:58:20+00,2020/11/26 02:17:58+00,2019/09/30 03:00:00+00,Traffic Services,IN,Y,HRM1,R4,PRI2,,ACCESSIBLE PARKING - HR3 - SPOT(S) = 2,,,,
-63.58778927,44.64857909,74749,AP94,COGSWELL ST,ROBIE ST,NORTH PARK ST,2,HR2,,INS,,E,GRASS,Y,N,2019/10/17 20:03:30+00,2020/11/26 02:17:56+00,2019/09/30 03:00:00+00,Traffic Services,IN,Y,HRM1,R3,PRI2,,ACCESSIBLE PARKING - HR2 - SPOT(S) = 2,,,,
-63.56893639,44.64265088,74750,AP146,LOWER WATER ST,BISHOP ST,MORRIS ST,2,NTR,,INS,,S,CONCRETE,N,Y,2019/10/18 16:58:20+00,2020/11/26 02:17:58+00,2019/09/30 03:00:00+00,Traffic Services,IN,Y,HRM1,R2,PRI2,,ACCESSIBLE PARKING - NTR - SPOT(S) = 2,,,,
-63.58913336,44.64004303,74751,AP118,HENRY ST,COBURG RD,BLISS ST,1,NTR,,INS,,NW,GRASS,Y,N,2019/10/18 16:58:20+00,2020/11/26 02:17:55+00,2019/09/30 03:00:00+00,Traffic Services,IN,Y,SWZ5,,PRI2,,ACCESSIBLE PARKING - NTR - SPOT(S) = 1,,,,
-63.5781827,44.6493321,74752,AP85,BRUNSWICK ST,DUKE ST,COGSWELL ST,2,HR3,,INS,,S,CONCRETE,N,Y,2019/10/17 15:03:06+00,2020/11/26 02:17:56+00,2019/09/30 03:00:00+00,Traffic Services,IN,Y,HRM1,R1,PRI2,,ACCESSIBLE PARKING - HR3 - SPOT(S) = 2,,,,
-63.59197804,44.64870338,74753,AP165,WELSFORD ST ,PARKER ST,ROBIE ST,2,NTR,,INS,,E,CONCRETE,Y,N,2019/10/18 16:58:20+00,2020/11/26 02:17:53+00,2019/09/30 03:00:00+00,Traffic Services,IN,Y,SWZ6,RB,PRI2,,ACCESSIBLE PARKING - NTR - SPOT(S) = 2,,,,
-63.60277639,44.66037151,74754,AP34,KAYE ST,ROBIE ST,HILFORD ST,1,NTR,,INS,,NE,GRASS,Y,N,2019/10/09 19:38:05+00,2020/11/26 02:17:53+00,2019/09/30 03:00:00+00,Traffic Services,IN,Y,SWZ6,RB,PRI2,,ACCESSIBLE PARKING - NTR - SPOT(S) = 3,,,,
-63.57859127,44.64239696,74755,AP84,BRENTON ST,SPRING GARDEN RD,CLYDE ST,1,HR3,,INS,<Null>,N,CONCRETE,N,N,2019/10/16 21:51:31+00,2020/11/26 02:17:56+00,2019/09/30 03:00:00+00,Traffic Services,IN,Y,HRM1,R4,PRI2,,,,,,
-63.56804645,44.66443321,74756,AP67,PORTLAND ST,ALDERNEY DR,,1,HR2,,INS,,SW,CONCRETE,Y,Y,2019/10/16 19:20:23+00,2020/11/26 02:17:56+00,2019/09/30 03:00:00+00,Traffic Services,IN,Y,HRM2,R1,PRI2,,ACCESSIBLE PARKING - HR2 - SPOT(S) = 1,,,,
-63.58141863,44.64191435,74757,AP207,SPRING GARDEN RD,SOUTH PARK ST,SUMMER ST,3,HR3,,INS,,SW,GRASS,N,N,2019/10/21 15:27:47+00,2020/11/26 02:17:58+00,2019/09/30 03:00:00+00,Traffic Services,IN,Y,HRM1,R4,PRI2,,ACCESSIBLE PARKING - HR3 - SPOT(S) = 3,,,,
-63.60130843,44.66336846,74758,AP216,LIVINGSTONE PL,ISLEVILLE ST,NOVALEA DR,1,HR3,,INS,,NE,CONGRAS,N,N,2019/10/21 20:16:11+00,2020/11/26 02:17:53+00,2019/09/30 03:00:00+00,Traffic Services,IN,Y,SWZ6,RB,PRI2,,ACCESSIBLE PARKING - HR3 - SPOT(S) = 1,,,,
-63.58988829,44.65748816,74759,AP209,WOOD AVE,NORTH ST,END,1,NTR,,INS,,,GRASS,N,N,2019/10/21 17:29:38+00,2020/11/26 02:17:53+00,2019/09/30 03:00:00+00,Traffic Services,IN,Y,SWZ6,RB,PRI2,,,,,,
-63.58208938,44.65212122,74760,AP215,MAITLAND ST,PORTLAND PL,CORNWALLIS ST,1,HR2,3,INS,,N,CONCRETE,N,N,2019/10/21 19:59:33+00,2020/11/26 02:17:53+00,2019/09/30 03:00:00+00,Traffic Services,IN,Y,SWZ6,RB,PRI2,,ACCESSIBLE PARKING - HR2 - SPOT(S) = 1,,,,
-63.58622673,44.65520119,74761,AP214,MAITLAND ST,DIVAS LANE,END,2,NTR,,INS,,S,CONGRAS,N,Y,2019/10/21 19:28:59+00,2020/11/26 02:17:53+00,2019/09/30 03:00:00+00,Traffic Services,IN,Y,SWZ6,RB,PRI2,,ACCESSIBLE PARKING - NTR - SPOT(S) = 2,,,,
-63.58535036,44.6538902,74762,AP208,PRINCE WILLIAM ST,MAITLAND ST,GOTTINGEN ST,1,HR3,,INS,,SW,CONCRETE,N,Y,2019/10/21 15:42:11+00,2020/11/26 02:17:53+00,2019/09/30 03:00:00+00,Traffic Services,IN,Y,SWZ6,RB,PRI2,,ACCESSIBLE PARKING - HR3 - SPOT(S) = 1,,,,
-63.59197444,44.64610351,74763,AP212,PEPPERELL ST,ROBIE ST,VERNON ST,1,HR1,,INS,,W,GRASS,N,N,2019/10/21 17:59:18+00,2020/11/26 02:17:56+00,2019/09/30 03:00:00+00,Traffic Services,IN,Y,SWZ5,,PRI2,,ACCESSIBLE PARKING - HR1 - SPOT(S) = 1,,,,
-63.59775087,44.65622361,74764,AP231,ST ALBANS ST,ROBIE ST,KING ST,1,HR2,,INS,,W,CONGRAS,N,N,2020/04/06 19:28:54+00,2020/11/26 02:17:53+00,2020/04/06 03:00:00+00,Traffic Services,IN,Y,SWZ6,RB,PRI2,,,,,,
-63.57053015,44.64323413,74765,AP240,HOLLIS ST,BISHOP ST,MORRIS ST,1,HR3,,INS,,S,CONCRETE,N,N,2020/10/05 16:54:02+00,2020/11/26 02:17:58+00,2020/10/05 03:00:00+00,Traffic Services,IN,Y,HRM1,R2,PRI2,,,,,,
-63.57215503,44.64642176,74766,AP238,HOLLIS ST,SACKVILLE ST,SALTER ST,1,HR3,,INS,,S,CONCRETE,N,N,2020/10/05 16:48:49+00,2020/11/26 02:17:58+00,2020/10/05 03:00:00+00,Traffic Services,IN,Y,HRM1,R1,PRI2,,,,,,
-63.57334541,44.64873317,74767,AP236,HOLLIS ST,DUKE ST,GEORGE ST,1,HR3,,INS,,S,CONCRETE,N,N,2020/10/05 16:37:51+00,2020/11/26 02:17:58+00,2020/10/05 03:00:00+00,Traffic Services,IN,Y,HRM1,R1,PRI2,,,,,,
-63.56986568,44.64190287,74768,AP242,HOLLIS ST,MORRIS ST,TERMINAL RD,1,HR3,,INS,,S,CONCRETE,N,N,2020/10/05 16:56:38+00,2020/11/26 02:17:58+00,2020/10/05 03:00:00+00,Traffic Services,IN,Y,HRM1,R2,PRI2,,,,,,
-63.57138701,44.64491899,74769,AP239,HOLLIS ST,SALTER ST,BISHOP ST,1,HR3,,INS,,S,CONCRETE,N,N,2020/10/05 16:50:53+00,2020/11/26 02:17:58+00,2020/10/05 03:00:00+00,Traffic Services,IN,Y,HRM1,R1,PRI2,,,,,,
-63.57259046,44.64722386,74770,AP237,HOLLIS ST,PRINCE ST,SACKVILLE ST,1,HR3,,INS,,S,CONCRETE,N,N,2020/10/05 16:42:50+00,2020/11/26 02:17:58+00,2020/10/05 03:00:00+00,Traffic Services,IN,Y,HRM1,R1,PRI2,,,,,,
-63.57018093,44.6425455,74771,AP241,HOLLIS ST,BISHOP ST,MORRIS ST,1,HR3,,INS,,S,CONCRETE,N,N,2020/10/05 16:54:41+00,2020/11/26 02:17:58+00,2020/10/05 03:00:00+00,Traffic Services,IN,Y,HRM1,R2,PRI2,,,,,,
-63.57236776,44.64821991,74773,AP82,BEDFORD ROW,PRINCE ST,GEORGE ST,2,HR2,,INS,,N,CONCRETE,N,N,2019/10/16 21:23:35+00,2020/11/26 02:17:56+00,2019/09/30 03:00:00+00,Traffic Services,IN,Y,HRM1,R1,PRI2,,ACCESSIBLE PARKING - HR2 - SPOT(S) = 2,,,,
-63.58662883,44.63971915,74774,AP147,ROBIE ST,COBURD RD,COLLEGE ST,1,NTR,,INS,,S,GRASS,Y,N,2019/10/18 16:58:20+00,2020/11/26 02:17:55+00,2019/09/30 03:00:00+00,Traffic Services,IN,Y,SWZ5,,PRI2,,ACCESSIBLE PARKING - NTR - SPOT(S) = 1,,,,
-63.57990559,44.63532028,74775,AP201,LUNDY'S LANE,WEST OF WELLINGTON,,1,MIN30,,INS,,W,CONCRETE,N,N,2019/10/18 16:58:20+00,2020/11/26 02:17:55+00,2019/09/30 03:00:00+00,Traffic Services,IN,Y,SWZ5,,PRI2,,ACCESSIBLE PARKING - MIN30 - SPOT(S) = 1,,,,
-63.59307573,44.65392549,74776,AP91,CHARLES ST,DAVISON ST,JOHN ST,2,NTR,,INS,,NE,CONCRETE,Y,N,2019/10/17 18:53:00+00,2020/11/26 02:17:53+00,2019/09/30 03:00:00+00,Traffic Services,IN,Y,SWZ6,RB,PRI2,,ACCESSIBLE PARKING - NTR - SPOT(S) = 2,,,,
-63.57790137,44.64301005,74778,AP99,DRESDEN ROW,SPRING GARDEN RD,ARTILLERY PL,1,HR1,,INS,,N,CONCRETE,Y,Y,2019/10/18 15:21:50+00,2020/11/26 02:17:58+00,2019/09/30 03:00:00+00,Traffic Services,IN,Y,HRM1,R4,PRI2,,ACCESSIBLE PARKING - HR1 - SPOT(S) = 1,,,,
-63.57551115,44.64723151,74779,AP108,GRAFTON ST,PRINCE ST,CARMICHAEL ST,1,HR3,,INS,,NW,CONCRETE,N,N,2019/10/18 16:15:27+00,2021/03/26 15:53:04+00,2019/09/30 03:00:00+00,Traffic Services,IN,Y,HRM1,R5,PRI2,,ACCESSIBLE PARKING - NTR - SPOT(S) = 2,,,,
-63.60136229,44.64229345,74780,AP39,BEECH ST,NORWOOD ST,PEPPERELL ST,1,NTR,,INS,,S,GRASS,Y,N,2019/10/10 17:39:29+00,2020/11/26 02:17:55+00,2019/09/30 03:00:00+00,Traffic Services,IN,Y,SWZ5,,PRI2,,ACCESSIBLE PARKING - NTR - SPOT(S) = 1,,,,
-63.59230781,44.65809476,74781,AP19,GOTTINGEN ST,BLACK ST,NORTH ST,1,HR3,,INS,,SE,CONCRETE,N,N,2019/10/09 17:15:49+00,2020/11/26 02:17:53+00,2019/09/30 03:00:00+00,Traffic Services,IN,Y,SWZ6,RB,PRI2,,ACCESSIBLE PARKING - HR3 - SPOT(S) = 1,,,,
-63.59408423,44.65581822,74782,AP24,AGRICOLA ST,NORTH ST,MCCULLY ST,1,HR3,,INS,,NW,GRASS,Y,N,2019/10/09 17:37:38+00,2020/11/26 02:17:53+00,2019/09/30 03:00:00+00,Traffic Services,IN,Y,SWZ6,RB,PRI2,,ACCESSIBLE PARKING - HR3 - SPOT(S) = 1,,,,
-63.59560077,44.6350084,74783,AP45,OXFORD ST,COBURG RD,SOUTH ST,2,NTR,,INS,,S,GRASS,Y,N,2019/10/10 21:13:08+00,2020/11/26 02:17:55+00,2019/09/30 03:00:00+00,Traffic Services,IN,Y,SWZ5,,PRI2,,ACCESSIBLE PARKING - NTR - SPOT(S) = 2,,,,
-63.56688938,44.66543013,74784,AP61,PORTLAND ST,KING ST,PRINCE ST,1,HR1,,INS,,SW,CONCRETE,Y,N,2019/10/16 19:20:23+00,2020/11/26 02:17:56+00,2019/09/30 03:00:00+00,Traffic Services,IN,Y,HRM2,R1,PRI2,,ACCESSIBLE PARKING - HR1 - SPOT(S) = 1,,,,
-63.56552701,44.66773515,74785,AP57,QUEEN ST,DUNDAS ST,VICTORIA RD,1,NTR,,INS,,NE,CONCRETE,Y,N,2019/10/16 19:20:23+00,2020/11/26 02:17:56+00,2019/09/30 03:00:00+00,Traffic Services,IN,Y,HRM2,R1,PRI2,,ACCESSIBLE PARKING - NTR - SPOT(S) = 1,,,,
-63.57528971,44.6482002,74786,AP73,ARGYLE ST,DUKE ST,CARMICHAEL ST,1,HR3,,INS,,S,CONCRETE,N,N,2019/10/16 20:44:53+00,2020/11/26 02:17:56+00,2019/09/30 03:00:00+00,Traffic Services,IN,Y,HRM1,R1,PRI2,,ACCESSIBLE PARKING - HR3 - SPOT(S) = 1,,,,
-63.57203124,44.64334359,74788,AP226,BARRINGTON ST,BISHOP ST,SPRING GARDEN RD,1,NTR,,INS,,N,CONCRETE,N,N,2020/01/27 19:24:59+00,2020/11/26 02:17:58+00,,,,Y,HRM1,R2,PRI2,,ACCESSIBLE PARKING - NTR - SPOT(S) = 1,,,,
-63.57212182,44.64353054,74789,AP227,BARRINGTON ST,BISHOP ST,SPRING GARDEN RD,1,HR3,,INS,,N,CONCRETE,N,N,2020/01/27 19:28:53+00,2020/11/26 02:17:58+00,2020/01/27 03:59:59+00,,IN,Y,HRM1,R2,PRI2,,ACCESSIBLE PARKING - HR3 - SPOT(S) = 1,,,,
-63.57594747,44.64905662,74790,AP101,DUKE ST,ARGYLE ST,ALBEMARLE ST,1,MIN30,,INS,,W,CONCRETE,N,N,2019/10/18 15:30:47+00,2020/11/26 02:17:58+00,2019/09/30 03:00:00+00,Traffic Services,IN,Y,HRM1,R1,PRI2,,ACCESSIBLE PARKING - MIN30 - SPOT(S) = 1,,,,
-63.57843974,44.64405165,74791,AP247,DRESDEN ROW,ARTILLERY PL,ANNANDALE ST,1,HR3,,INS,,N,CONCRETE,N,Y,2020/12/15 17:26:37+00,2021/02/10 19:55:09+00,2020/12/15 03:59:59+00,Traffic Services,IN,Y,HRM1,R4,PRI2,,ACCESSIBLE PARKING - HR3 - SPOT(S) = 1,,,,
-63.57456103,44.6406959,74792,AP248,QUEEN ST,SOUTH ST,MORRIS ST,1,HR3,,INS,,N,CONCRETE,N,N,2020/12/18 23:03:14+00,2020/12/18 23:12:46+00,2020/12/18 03:59:59+00,Traffic Services,IN,Y,HRM1,R4,PRI2,,ACCESSIBLE PARKING - HR1 - SPOT(S) = 1,,,,
-63.5820173,44.65118384,74793,AP255,GOTTINGEN ST,COGSWELL ST,PORTLAND PL,1,HR3,,INS,,NW,CONCRETE,N,N,2021/02/25 23:37:44+00,2021/02/25 23:41:22+00,2021/02/25 03:59:59+00,Traffic Services,IN,,,,,,,,,,
-63.59205391,44.65592378,74794,AP260,MAYNARD ST,CHARLES ST,NORTH ST,1,NTR,,INS,,NW,CONCRETE,N,N,2021/04/01 18:28:30+00,2021/04/01 18:29:25+00,,,,,,,,,,,,,
-63.59411529,44.65572981,74795,AP259,AGRICOLA ST,MCCULLY ST,NORTH ST,1,HR2,,INS,,SE,CONGRAS,N,N,2021/04/01 18:03:17+00,2021/04/01 18:04:43+00,,,,,,,,,,,,,
-63.59238979,44.65710842,74796,AP261,NORTHWOOD TERR,BLACK ST,NORTH ST,3,HR3,,INS,,SE,CONCRETE,N,N,2021/04/01 20:11:32+00,2021/04/01 20:14:34+00,,,,,,,,,,,,,
-63.58635939,44.64046375,74797,AP258,SPRING GARDEN RD,ROBIE ST,CARLTON ST,1,HR3,,INS,,E,CONCRETE,N,N,2021/04/01 17:21:15+00,2021/04/01 18:07:44+00,,,,,,,,,,,,,
-63.58333292,44.63889015,74798,AP262,UNIVERSITY AVE,SUMMER ST,ROBIE ST,2,HR3,,INS,,W,GRASS,N,N,2021/04/09 21:13:59+00,2021/05/21 18:05:07+00,,,IN,Y,HRM1,R4,,,ACCESSIBLE PARKING - HR3 - SPOT(S) = 2,,,,
-63.58020587,44.64970531,74799,AP219,GOTTINGEN ST,BRUNSWICK ST,COGSWELL ST,1,HR3,,INS,,N,CONCRETE,N,N,2019/10/22 16:51:58+00,2021/02/25 23:06:03+00,2019/09/30 03:00:00+00,Traffic Services,IN,Y,HRM1,R3,PRI2,,ACCESSIBLE PARKING - NTR - SPOT(S) = 1,,,,
-63.60519158,44.64779318,74800,AP129,ELM ST,CHEBUCTO RD,OAK ST,1,HR1,,INS,,S,CONGRAS,Y,N,2019/10/22 17:09:06+00,2020/11/26 02:17:53+00,2019/09/30 03:00:00+00,Traffic Services,IN,Y,SWZ6,RA,PRI2,,ACCESSIBLE PARKING - HR1 - SPOT(S) = 1,,,,
-63.60060762,44.64770813,74801,AP217,LAWRENCE ST,HARVARD ST,CHEBUCTO LANE,2,HR3,,INS,,NE,CONGRAS,N,N,2019/10/22 15:30:00+00,2020/11/26 02:17:53+00,2019/09/30 03:00:00+00,Traffic Services,IN,Y,SWZ6,RA,PRI2,,ACCESSIBLE PARKING - HR3 - SPOT(S) = 2,,,,
-63.57672086,44.63385345,74802,AP218,IVANHOE ST,INGLIS ST,ATLANTIC ST,1,,,INS,,S,CONCRETE,N,N,2019/10/22 16:27:56+00,2020/11/26 02:17:56+00,2019/09/30 03:00:00+00,Traffic Services,IN,Y,SWZ5,,PRI2,,ACCESSIBLE PARKING - SPOT(S) = 1,,,,
-63.57339365,44.64719291,74803,AP224,GRANVILLE ST,SACKVILLE ST,PRINCE ST,1,HR3,,INS,,N,CONCRETE,N,N,2019/11/13 17:52:23+00,2020/11/26 02:17:58+00,2019/11/13 03:59:59+00,Parking Management,IN,Y,HRM1,R1,PRI2,,ACCESSIBLE PARKING - HR3 - SPOT(S) = 1,,,,
-63.56979987,44.63683191,74804,AP228,SMITH ST,BARRINGTON ST,END,1,NTR,,INS,,E,CONGRAS,N,N,2020/02/07 19:16:55+00,2020/11/26 02:17:56+00,,Traffic Services,IN,Y,SWZ5,,PRI2,,ACCESSIBLE PARKING - NTR - SPOT(S) = 1,,,,
-63.58843053,44.65341287,74805,AP158,MAYNARD ST ,HARRIS ST,BUDDY DAYE ST,1,NTR,,INS,,N,GRASS,Y,N,2019/10/18 16:58:20+00,2020/11/26 02:17:58+00,2019/09/30 03:00:00+00,Traffic Services,IN,Y,HRM1,R6,PRI2,,ACCESSIBLE PARKING - NTR - SPOT(S) = 1,,,,
-63.58373177,44.64130001,74806,AP135,SPRING GARDEN RD,SUMMER ST,ABERDEEN TERR,1,HR1,,INS,,W,CONCRETE,Y,N,2019/10/18 16:58:20+00,2020/11/26 02:17:58+00,2019/09/30 03:00:00+00,Traffic Services,IN,Y,HRM1,R4,PRI2,,ACCESSIBLE PARKING - HR1 - SPOT(S) = 1,,,,
-63.58272313,44.63061145,74807,AP211,ROXTON RD,ROBIE ST,MARLBOROUGH AVE,1,NTR,,INS,,SW,CONCRETE,Y,N,2019/10/21 17:37:23+00,2020/11/26 02:17:55+00,2019/09/30 03:00:00+00,Traffic Services,IN,Y,SWZ5,,PRI2,,ACCESSIBLE PARKING - NTR - SPOT(S) = 1,,,,
-63.58299619,44.63055078,74808,AP210,ROXTON RD,ROBIE ST,MARLBOROUGH AVE,1,NTR,,INS,,SW,CONCRETE,Y,N,2019/10/21 17:37:39+00,2020/11/26 02:17:56+00,2019/09/30 03:00:00+00,Traffic Services,IN,Y,SWZ5,,PRI2,,ACCESSIBLE PARKING - NTR - SPOT(S) = 1,,,,
-63.57040713,44.6419428,74809,AP137,MORRIS ST,BARRINGTON ST,HOLLIS ST,1,HR2,,INS,,E,CONCRETE,N,Y,2019/10/18 16:58:20+00,2020/11/26 02:17:58+00,2019/09/30 03:00:00+00,Traffic Services,IN,Y,HRM1,R2,PRI2,,ACCESSIBLE PARKING - HR2 - SPOT(S) = 1,,,,
-63.566437,44.66822761,74810,AP49,OCHTERLONEY ST,VICTORIA RD,DUNDAS ST,1,HR3,,INS,,NE,CONCRETE,N,N,2019/10/16 17:26:55+00,2020/11/26 02:17:56+00,2019/09/30 03:00:00+00,Traffic Services,IN,Y,HRM2,R1,PRI2,,ACCESSIBLE PARKING - HR3 - SPOT(S) = 1,,,,
-63.57621937,44.64161549,74811,AP244,BIRMINGHAM ST,MORRIS ST,CLYDE ST,1,HR3,,INS,,S,GRASS,N,N,2020/11/04 18:14:17+00,2020/12/18 23:12:41+00,2020/11/13 03:59:59+00,Traffic Services,IN,Y,HRM1,R4,PRI2,,ACCESSIBLE PARKING - HR1 - SPOT(S) = 1,,,,
-63.57913537,44.64088198,74812,AP254,SOUTH PARK ST,BRENTON PL,MORRIS ST,1,HR3,,INS,,S,CONCRETE,N,N,2021/02/11 00:18:57+00,2021/02/11 00:20:51+00,,,,,,,,,,,,,
-63.57818575,44.64394151,74813,AP253,ARTILLERY PL,BIRMINGHAM ST,DRESDEN ROW,2,HR3,,INS,,E,CONCRETE,N,N,2021/02/10 19:46:17+00,2021/02/10 19:56:52+00,,,,,,,,,,,,,
-63.57769015,44.64259213,74814,AP249,DRESDEN ROW,CLYDE ST,SPRING GARDEN RD,1,HR3,,INS,,N,CONCRETE,N,N,2021/02/10 19:43:32+00,2021/02/10 19:51:31+00,,,,,,,,,,,,,
-63.57696883,44.64327923,74815,AP250,BIRMINGHAM ST,SPRING GARDEN RD,ARTILLERY PL,2,HR3,,INS,,N,CONCRETE,Y,Y,2021/02/10 19:44:23+00,2021/02/10 19:54:59+00,,,,,,,,,,,,,
-63.58229833,44.63948477,74816,AP273,SUMMER ST,UNIVERSITY AVE,COLLEGE ST,1,HR3,,INS,,NW,GRASS,N,N,2021/05/21 17:24:20+00,2021/05/21 18:03:36+00,2021/05/14 03:00:00+00,Traffic Services,IN,Y,HRM1,R4,,,ACCESSIBLE PARKING - HR3 - SPOT(S) = 1,,,,
-63.54462299,44.66570662,74818,AP71,HASTINGS DR,PRINCE ARTHUR AVE,CLEMENT ST,2,,1,INS,,SE,CONGRAS,N,N,2019/10/16 20:03:18+00,2020/11/26 02:17:53+00,2019/09/30 03:00:00+00,Traffic Services,IN,Y,SWZ8,,PRI2,,ACCESSIBLE PARKING - SPOT(S) = 2,,,,
-63.58710466,44.6534636,74819,AP229,CREIGHTON ST,BUDDY DAYE ST,CUNARD ST,1,NTR,,INS,,S,GRASS,N,N,2020/03/05 19:07:20+00,2020/11/26 02:17:58+00,2019/03/04 03:59:59+00,Traffic Services,IN,Y,HRM1,R6,PRI2,,,,,,
-63.59391571,44.65360147,74820,AP232,ROBIE ST,CHARLES ST,WILLOW ST,2,,1,INS,,N,CONCRETE,N,N,2020/05/25 17:58:21+00,2020/11/26 02:17:55+00,2020/05/25 03:00:00+00,Traffic Services,IN,Y,SWZ6,RB,PRI2,,,,,,
-63.56940847,44.64021381,74821,AP233,SOUTH ST,HOLLIS ST,BARRINGTON ST,1,NTR,,INS,,E,CONGRAS,N,N,2020/09/22 16:34:23+00,2020/11/26 02:17:58+00,2020/09/21 03:00:00+00,,IN,Y,HRM1,R2,PRI2,,,,,,
-63.57254617,44.6350391,74824,AP246,SOUTH BLAND ST,ATLANTIC ST,INGLIS ST,1,,1,INS,,S,GRASS,N,N,2020/11/07 00:10:30+00,2020/11/26 02:17:56+00,2020/11/06 03:59:59+00,Traffic Services,IN,Y,SWZ5,,PRI2,,,,,,
-63.57480368,44.64717971,74825,AP243,ARGYLE ST,CARMICHAEL ST,PRINCE ST,1,HR3,,INS,,S,CONCRETE,Y,N,2020/10/05 17:13:17+00,2020/11/26 02:17:58+00,2020/10/05 03:00:00+00,Traffic Services,IN,Y,HRM1,R1,PRI2,,,,,,
-63.57391052,44.64505607,74826,AP257,BLOWERS ST,GRAFTON ST,ARGYLE ST,1,HR3,,INS,,SE,CONCRETE,N,Y,2021/03/12 17:01:03+00,2021/03/12 17:07:07+00,2021/03/10 03:59:59+00,Traffic Services,IN,,,,,,,,,,
-63.58362262,44.65264563,74828,AP97,CORNWALLIS ST,MAITLAND ST,GOTTINGEN ST,3,NTR,1,INS,,SW,CONCRETE,N,Y,2019/10/17 20:24:43+00,2021/02/25 23:08:09+00,2019/09/30 03:00:00+00,Traffic Services,IN,Y,SWZ6,RB,PRI2,,ACCESSIBLE PARKING - HR3 - SPOT(S) = 3,,,,
-63.5850825,44.63843323,74829,AP136,UNIVERSITY AVE,SUMMER ST,ROBIE ST,3,HR3,,INS,,W,GRASS,N,N,2019/10/18 16:58:20+00,2020/11/26 02:17:58+00,2019/09/30 03:00:00+00,Traffic Services,IN,Y,HRM1,R4,PRI2,,ACCESSIBLE PARKING - HR3 - SPOT(S) = 3,,,,
-63.59838974,44.64367407,74830,AP202,SELDON ST,NORWOOD ST,PEPPERELL ST,1,,1,INS,,N,GRASS,Y,N,2019/10/18 16:58:20+00,2020/11/26 02:17:55+00,2019/09/30 03:00:00+00,Traffic Services,IN,Y,SWZ5,,PRI2,,ACCESSIBLE PARKING - SPOT(S) = 1,,,,
-63.574189,44.64875112,74831,AP154,GRANVILLE ST,DUKE ST,GEORGE ST,1,HR2,,INS,,N,CONCRETE,Y,N,2019/10/18 16:58:20+00,2020/11/26 02:17:58+00,2019/09/30 03:00:00+00,Traffic Services,IN,Y,HRM1,R1,PRI2,,ACCESSIBLE PARKING - HR2 - SPOT(S) = 1,,,,
-63.58745293,44.63989729,74832,AP93,COBURG RD,EDWARD ST,ROBIE ST,1,NTR,1,INS,,E,CONCRETE,Y,N,2019/10/17 19:25:45+00,2020/11/26 02:17:55+00,2019/09/30 03:00:00+00,Traffic Services,IN,Y,SWZ5,,PRI2,,ACCESSIBLE PARKING - SPOT(S) = 1,,,,
-63.57536615,44.64065198,74833,AP139,MORRIS ST,QUEEN ST,BIRMINGHAM ST,1,NTR,,INS,,W,CONCRETE,N,N,2019/10/18 16:58:20+00,2020/11/26 02:17:58+00,2019/09/30 03:00:00+00,Traffic Services,IN,Y,HRM1,R4,PRI2,,ACCESSIBLE PARKING - NTR - SPOT(S) = 1,,,,
-63.58863989,44.63704915,74834,AP203,SEYMOUR ST,SOUTH,UNIVERSITY AVE,1,HR3,,INS,,N,GRASS,N,Y,2019/10/18 16:58:20+00,2020/11/26 02:17:55+00,2019/09/30 03:00:00+00,Traffic Services,IN,Y,SWZ5,,PRI2,,ACCESSIBLE PARKING - HR3 - SPOT(S) = 1,,,,
-63.58467893,44.63972552,74835,AP96,COLLEGE ST,ROBIE ST,CARLETON ST,2,HR3,,INS,,E,CONCRETE,Y,N,2019/10/17 20:22:43+00,2020/11/26 02:17:56+00,2019/09/30 03:00:00+00,Traffic Services,IN,Y,HRM1,R4,PRI2,,ACCESSIBLE PARKING - HR3 - SPOT(S) = 2,,,,
-63.57916648,44.64129795,74836,AP126,SOUTH PARK ST,SPRING GARDEN RD,SACKVILLE ST,1,HR2,,INS,,N,CONCRETE,Y,N,2019/10/18 16:58:20+00,2020/11/26 02:17:58+00,2019/09/30 03:00:00+00,Traffic Services,IN,Y,HRM1,R4,PRI2,,ACCESSIBLE PARKING - HR2 - SPOT(S) = 1,,,,
-63.57722127,44.647363,74837,AP86,BRUNSWICK ST,DUKE ST,PRINCE ST,8,,,INS,,S,CONCRETE,N,N,2019/10/17 16:33:11+00,2020/11/26 02:17:56+00,2019/09/30 03:00:00+00,Traffic Services,IN,Y,HRM1,R1,PRI2,,ACCESSIBLE PARKING - SPOT(S) = 8,,,,
-63.60011478,44.64208986,74838,AP112,CAMBRIDGE ST,PEPPERELL ST,NORWOOD ST,1,NTR,,INS,,N,GRASS,N,Y,2019/10/18 18:59:59+00,2020/11/26 02:17:55+00,2019/09/30 03:00:00+00,Traffic Services,IN,Y,SWZ5,,PRI2,,ACCESSIBLE PARKING - NTR - SPOT(S) = 1,,,,
-63.57390572,44.64818814,74839,AP153,GRANVILLE ST,GEORGE ST,PRINCE ST,2,HR2,,INS,,N,CONCRETE,N,N,2019/10/18 16:58:20+00,2020/11/26 02:17:58+00,2019/09/30 03:00:00+00,Traffic Services,IN,Y,HRM1,R1,PRI2,,ACCESSIBLE PARKING - HR2 - SPOT(S) = 2,,,,
-63.58901939,44.63776853,74840,AP121,SEYMOUR ST,UNIVERSITY AVE,COBURG RD,1,HR3,,INS,,N,GRASS,Y,Y,2019/10/18 16:58:20+00,2020/11/26 02:17:55+00,2019/09/30 03:00:00+00,Traffic Services,IN,Y,SWZ5,,PRI2,,ACCESSIBLE PARKING - HR3 - SPOT(S) = 1,,,,
-63.56645172,44.66548445,74841,AP63,KING ST,PORTLAND ST,ALDERNEY DR,1,NTR,,INS,,NW,CONCRETE,Y,N,2019/10/16 19:20:23+00,2020/11/26 02:17:56+00,2019/09/30 03:00:00+00,Traffic Services,IN,Y,HRM2,R1,PRI2,,ACCESSIBLE PARKING - NTR - SPOT(S) = 1,,,,
-63.59771114,44.64483368,74842,AP42,PRESTON ST,QUINPOOL RD,PEPPERELL ST,5,,1,INS,,S,CONCRETE,N,N,2019/10/10 18:14:11+00,2020/11/26 02:17:55+00,2019/09/30 03:00:00+00,Traffic Services,IN,Y,SWZ5,,PRI2,,ACCESSIBLE PARKING - SPOT(S) = 5,,,,
